INTELSAT 701 (IS-701)   
1 22871U 93066A   16137.25576168 -.00000227  00000-0  00000+0 0  9993
2 22871   3.4442  69.1527 0004068 348.8986 238.9161  1.00271323 82417
INTELSAT 702 (IS-702)   
1 23124U 94034A   16137.44348058  .00000142  00000-0  00000-0 0  9993
2 23124   3.7892  67.3573 0000327 131.6519 228.1307  1.00272276 94421
INTELSAT 26 (IS-26)     
1 24732U 97007A   16138.12617926  .00000015  00000-0  00000+0 0  9999
2 24732   6.8353  53.0282 0005088  12.9270 276.9004  1.00271970 70346
GALAXY 25 (G-25)        
1 24812U 97026A   16138.60384209 -.00000171  00000-0  00000+0 0  9991
2 24812   0.0108  17.0413 0002648  38.6948 304.2927  1.00270482 69435
INTELSAT 5 (IS-5)       
1 24916U 97046A   16137.11547191 -.00000152  00000-0  00000-0 0  9994
2 24916   2.7730  73.0892 0004253 345.4043  14.3307  1.00271602 68684
INTELSAT 805 (IS-805)   
1 25371U 98037A   16137.60845031 -.00000042  00000-0  00000+0 0  9996
2 25371   0.0123 338.0587 0003217  76.5155 208.2089  1.00272956 65622
INTELSAT 7 (IS-7)       
1 25473U 98052A   16137.32217625 -.00000013  00000-0  00000+0 0  9995
2 25473   2.4348  75.9663 0004313  65.3947 294.3777  0.98210703 64699
AFRISTAR                
1 25515U 98063A   16138.10617104  .00000117  00000-0  00000+0 0  9991
2 25515   2.5380  70.6961 0004552 350.4860 233.2853  1.00274656 64196
INTELSAT 8 (IS-8)       
1 25522U 98065A   16137.60845031 -.00000043  00000-0  00000+0 0  9996
2 25522   0.1964  88.5665 0003496 324.5382 209.5761  1.00272435 64188
GALAXY 27 (G-27)        
1 25922U 99052A   16138.50766096 -.00000102  00000-0  00000+0 0  9996
2 25922   2.3980  73.6009 0000698  13.6835 346.0009  0.99020373 60953
GALAXY 11 (G-11)        
1 26038U 99071A   16138.79042383  .00000040  00000-0  00000+0 0  9993
2 26038   0.0601  72.6244 0001053 286.2625 221.6707  1.00271172 60184
SIRIUS-1                
1 26390U 00035A   16137.46859596 -.00000072  00000-0  00000+0 0  9997
2 26390  59.6417 233.0045 2567157 266.1815 172.1630  1.00277382 58152
INTELSAT 9 (IS-9)       
1 26451U 00043A   16138.32584171 -.00000279  00000-0  00000+0 0  9993
2 26451   2.7616  73.3096 0003286 344.5115 251.8511  1.00272385 57915
SIRIUS-2                
1 26483U 00051A   16135.68459663  .00000067  00000-0  00000+0 0  9994
2 26483  64.5287 113.2035 2852640 265.8315   9.8886  1.00278908 57476
INTELSAT 12 (IS-12)     
1 26590U 00068A   16138.19605356  .00000127  00000-0  00000+0 0  9999
2 26590   0.0211 284.6871 0002713 157.7326 268.4809  1.00272471 56864
INTELSAT 1R (IS-1R)     
1 26608U 00072A   16138.30282130 -.00000291  00000-0  00000+0 0  9991
2 26608   0.0210 216.6874 0001264  21.2120  56.5563  1.00271632 56724
SIRIUS-3                
1 26626U 00077A   16134.51261999 -.00000163  00000-0  00000+0 0  9993
2 26626  64.4157 353.0673 2655833 268.1996  61.5282  1.00273599 56608
XM-1 (ROLL)             
1 26761U 01018A   16138.40178353 -.00000232  00000-0  00000+0 0  9999
2 26761   0.2426  89.8368 0003753  13.0708 235.5677  0.99008916 55082
INTELSAT 10 (IS-10)     
1 26766U 01019A   16138.99005530  .00000120  00000-0  00000+0 0  9990
2 26766   0.6990  86.7870 0002432 323.3717 229.8620  1.00273179 55005
INTELSAT 901 (IS-901)   
1 26824U 01024A   16138.77279521 -.00000149  00000-0  00000+0 0  9992
2 26824   0.0302  42.2380 0002962  15.9056  77.9567  1.00271950 54671
INTELSAT 902 (IS-902)   
1 26900U 01039A   16138.11969434  .00000023  00000-0  00000+0 0  9990
2 26900   0.0102  59.4570 0003201   7.9243 272.9615  1.00273015 53833
DIRECTV 4S              
1 26985U 01052A   16137.58845150 -.00000125  00000-0  00000+0 0  9990
2 26985   0.0116 283.0742 0002291 118.5205 303.7803  1.00273565 53058
INTELSAT 904 (IS-904)   
1 27380U 02007A   16138.77943400  .00000041  00000-0  00000+0 0  9996
2 27380   0.0187 303.2000 0003375 110.6148 162.6858  1.00274466 52165
INTELSAT 903 (IS-903)   
1 27403U 02016A   16138.15874756 -.00000248  00000-0  00000+0 0  9991
2 27403   0.0194 307.4975 0002848 111.1256 199.3208  1.00272496 51713
DIRECTV 5 (TEMPO 1)     
1 27426U 02023A   16137.65381397 -.00000067  00000-0  00000+0 0  9991
2 27426   0.0095 313.8605 0003912 108.8205 297.3588  1.00270200 51372
INTELSAT 905 (IS-905)   
1 27438U 02027A   16137.22935434 -.00000197  00000-0  00000-0 0  9993
2 27438   0.0157 305.1038 0002581  96.8304 250.5200  1.00270949 14433
GALAXY 3C (G-3C)        
1 27445U 02030A   16137.61196150 -.00000162  00000-0  00000+0 0  9993
2 27445   0.0176 303.0984 0001686  34.9475  21.9486  1.00271382 51020
INTELSAT 906 (IS-906)   
1 27513U 02041A   16139.03413818  .00000007  00000-0  00000+0 0  9999
2 27513   0.0237 294.5973 0002305 132.1820 245.8273  1.00272261 50049
INTELSAT 907 (IS-907)   
1 27683U 03007A   16136.42757983 -.00000218  00000-0  00000+0 0  9999
2 27683   0.0165 305.1785 0002980  99.7862 315.0587  1.00270721 48448
GALAXY 12 (G-12)        
1 27715U 03013B   16138.60612050  .00000050  00000-0  00000+0 0  9992
2 27715   0.0177 267.6527 0001765 169.4613 247.8139  1.00271763 48073
GALAXY 23 (G-23)        
1 27854U 03034A   16138.40795654  .00000000  00000-0  00000+0 0  9994
2 27854   0.0152 307.5889 0003133 112.0915 201.7358  1.00271374 47580
GALAXY 13 (HORIZONS-1)  
1 27954U 03044A   16138.42167963  .00000039  00000-0  00000+0 0  9996
2 27954   0.0081 250.3308 0000681 210.1149 159.8925  1.00273289 46238
DIRECTV 7S              
1 28238U 04016A   16137.53758140 -.00000011  00000-0  00000+0 0  9997
2 28238   0.0230 358.8932 0003032  57.2971 252.9506  1.00273738 44139
INTELSAT 10-02          
1 28358U 04022A   16139.07357429 -.00000018  00000-0  00000+0 0  9990
2 28358   0.0089 297.9736 0000801 100.3469 223.3625  1.00269693 43703
XM-3 (RHYTHM)           
1 28626U 05008A   16138.46727403 -.00000214  00000-0  00000+0 0  9996
2 28626   0.0169  85.2919 0000472 277.8924 315.5018  1.00269397 41137
SPACEWAY 1              
1 28644U 05015A   16138.43655556 -.00000111  00000-0  00000+0 0  9996
2 28644   0.0387 130.9333 0000288 272.9941 245.8701  1.00272104 40589
DIRECTV 8               
1 28659U 05019A   16137.62812762 -.00000127  00000-0  00000+0 0  9997
2 28659   0.0131 311.7564 0003269  99.3560 308.9185  1.00271736 40258
GALAXY 28 (G-28)        
1 28702U 05022A   16138.52909359 -.00000194  00000-0  00000+0 0  9993
2 28702   0.0117 321.0229 0000390 324.5017  51.5968  1.00272477 39896
GALAXY 14 (G-14)        
1 28790U 05030A   16138.93693172  .00000029  00000-0  00000+0 0  9993
2 28790   0.0163 354.6398 0002528  57.7406  35.9718  1.00271340 39386
GALAXY 15 (G-15)        
1 28884U 05041A   16138.44919307  .00000070  00000-0  00000+0 0  9992
2 28884   0.0178  16.3552 0001064  39.2472 208.6853  1.00270773 38693
SPACEWAY 2              
1 28903U 05046B   16138.59794814 -.00000135  00000-0  00000+0 0  9992
2 28903   0.0051  58.7531 0000128 290.4448   2.7075  1.00272596 38566
GALAXY 16 (G-16)        
1 29236U 06023A   16138.59794814 -.00000135  00000-0  00000+0 0  9998
2 29236   0.0210 230.3375 0003708 159.7526 321.8888  1.00272493 36334
DIRECTV 9S              
1 29494U 06043A   16138.52404456 -.00000122  00000-0  00000+0 0  9995
2 29494   0.0138  78.3623 0003823 340.7925 264.0591  1.00270006 35176
XM-4 (BLUES)            
1 29520U 06049A   16138.35932064 -.00000032  00000-0  00000+0 0  9993
2 29520   0.0046  40.3612 0000208 307.0369 262.1888  1.00272690 35060
GALAXY 17 (G-17)        
1 31307U 07016B   16137.78481582 -.00000186  00000-0  00000+0 0  9994
2 31307   0.0539  52.9976 0003150 350.9196  22.5445  1.00271994 33149
DIRECTV 10              
1 31862U 07032A   16137.63354697 -.00000114  00000-0  00000+0 0  9999
2 31862   0.0088 108.8069 0000275 248.9141   2.2804  1.00272731 32478
SPACEWAY 3              
1 32018U 07036A   16138.45154491 -.00000161  00000-0  00000+0 0  9990
2 32018   0.0079  66.5245 0000361 291.4512 305.2015  1.00272337 32190
INTELSAT 11 (IS-11)     
1 32253U 07044B   16138.39186907 -.00000278  00000-0  00000+0 0  9999
2 32253   0.0070 252.5689 0003126 162.9315 278.0844  1.00268833 31592
HORIZONS-2              
1 32388U 07063B   16138.50019877 -.00000191  00000-0  00000+0 0  9997
2 32388   0.0136 306.7440 0003211 103.1571  90.6469  1.00272026 30956
DIRECTV 11              
1 32729U 08013A   16138.59794814 -.00000134  00000-0  00000+0 0  9999
2 32729   0.0055 105.8209 0000252 263.1474 342.8291  1.00273127 30001
GALAXY 18 (G-18)        
1 32951U 08024A   16137.68931738  .00000013  00000-0  00000+0 0  9990
2 32951   0.0083 315.5691 0002991 102.4120 302.0480  1.00271017 29157
INTELSAT 25 (IS-25)     
1 33153U 08034A   16137.43595012 -.00000236  00000-0  00000+0 0  9998
2 33153   0.0148 320.7946 0002550  77.3950 321.8297  1.00271281 28693
GALAXY 19 (G-19)        
1 33376U 08045A   16137.61744520 -.00000151  00000-0  00000+0 0  9993
2 33376   0.0057  24.1001 0003416  37.1201 298.8141  1.00270130 27907
SIRIUS FM-5             
1 35493U 09034A   16137.70993775 -.00000212  00000-0  00000+0 0  9990
2 35493   0.0105 294.9635 0000804  40.0474  69.2683  1.00271854 25044
INTELSAT 14 (IS-14)     
1 36097U 09064A   16137.47337088 -.00000286  00000-0  00000+0 0  9998
2 36097   0.0170 305.4533 0002522 105.7897 308.7795  1.00269289 23771
INTELSAT 15 (IS-15)     
1 36106U 09067A   16138.50019877 -.00000194  00000-0  00000+0 0  9998
2 36106   0.0281 291.6086 0002551 125.5421  83.6898  1.00272025 23673
DIRECTV 12              
1 36131U 09075A   16138.35412374 -.00000112  00000-0  00000+0 0  9997
2 36131   0.0359 104.0886 0000286 264.5628 251.5111  1.00272376 23457
INTELSAT 16 (IS-16)     
1 36397U 10006A   16138.22348057 -.00000295  00000-0  00000+0 0  9991
2 36397   0.0095 342.3746 0001942  64.6769 210.6505  1.00272134 22808
XM-5                    
1 37185U 10053A   16138.46454547 -.00000214  00000-0  00000+0 0  9998
2 37185   0.0163 310.1538 0000346  45.8759 321.5838  1.00271756 20515
INTELSAT 17 (IS-17)     
1 37238U 10065B   16137.75476516 -.00000013  00000-0  00000-0 0  9999
2 37238   0.0359 113.4081 0002385 300.4037 158.7830  1.00271511 16495
INTELSAT NEW DAWN       
1 37392U 11016A   16137.94925449  .00000145  00000-0  00000+0 0  9996
2 37392   0.0167 273.5619 0000253  82.1975 253.8587  1.00272756 18585
INTELSAT 18 (IS-18)     
1 37834U 11056A   16138.33729971  .00000044  00000-0  00000+0 0  9995
2 37834   0.0114 284.0677 0001996 116.6301 136.1914  1.00274038 16928
INTELSAT 22 (IS-22)     
1 38098U 12011A   16137.14898250 -.00000072  00000-0  00000+0 0  9997
2 38098   0.0223 347.1719 0002286  96.2397 276.6150  1.00273062 15119
INTELSAT 19 (IS-19)     
1 38356U 12030A   16137.88608629 -.00000067  00000-0  00000+0 0  9999
2 38356   0.0216   4.1586 0002599  47.5976 308.2694  1.00271359 14581
INTELSAT 20 (IS-20)     
1 38740U 12043A   16138.15614736 -.00000034  00000-0  00000+0 0  9991
2 38740   0.0211 293.7460 0000436  63.9926   2.2612  1.00269589 13903
INTELSAT 21 (IS-21)     
1 38749U 12045A   16137.25837013 -.00000298  00000-0  00000+0 0  9999
2 38749   0.0226  23.5396 0002490  18.5037 227.3684  1.00271814 13695
INTELSAT 23 (IS-23)     
1 38867U 12057A   16136.20138113 -.00000301  00000-0  00000+0 0  9997
2 38867   0.0077 257.8429 0001845 136.8727 218.1521  1.00272475 13166
SIRIUS FM-6             
1 39360U 13058A   16137.67035443 -.00000028  00000-0  00000+0 0  9998
2 39360   0.0106 344.6669 0001742 350.7756  24.5509  1.00270844  9410
INTELSAT 30 (IS-30)     
1 40271U 14062A   16137.40734894 -.00000163  00000-0  00000+0 0  9994
2 40271   0.0148 305.4294 0001797 136.0391 204.6707  1.00269430  5829
INTELSAT 34             
1 40874U 15039A   16135.42747397 -.00000304  00000-0  00000+0 0  9997
2 40874   0.0138 299.1955 0000717 347.9799  43.8043  1.00270981  2710
INTELSAT 29E            
1 41308U 16004A   16138.21733907 -.00000292  00000-0  00000+0 0  9991
2 41308   0.0557  38.3985 0001403 353.4856 231.6919  1.00271659  1220
